
<!DOCTYPE html
  PUBLIC "-//W3C//DTD HTML 4.01 Transitional//EN">
<html><head>
      <meta http-equiv="Content-Type" content="text/html; charset=utf-8">
   <!--
This HTML was auto-generated from MATLAB code.
To make changes, update the MATLAB code and republish this document.
      --><title>NL_HW1_Problem4</title><meta name="generator" content="MATLAB 9.11"><link rel="schema.DC" href="http://purl.org/dc/elements/1.1/"><meta name="DC.date" content="2024-09-17"><meta name="DC.source" content="NL_HW1_Problem4.m"><style type="text/css">
html,body,div,span,applet,object,iframe,h1,h2,h3,h4,h5,h6,p,blockquote,pre,a,abbr,acronym,address,big,cite,code,del,dfn,em,font,img,ins,kbd,q,s,samp,small,strike,strong,tt,var,b,u,i,center,dl,dt,dd,ol,ul,li,fieldset,form,label,legend,table,caption,tbody,tfoot,thead,tr,th,td{margin:0;padding:0;border:0;outline:0;font-size:100%;vertical-align:baseline;background:transparent}body{line-height:1}ol,ul{list-style:none}blockquote,q{quotes:none}blockquote:before,blockquote:after,q:before,q:after{content:'';content:none}:focus{outine:0}ins{text-decoration:none}del{text-decoration:line-through}table{border-collapse:collapse;border-spacing:0}

html { min-height:100%; margin-bottom:1px; }
html body { height:100%; margin:0px; font-family:Arial, Helvetica, sans-serif; font-size:10px; color:#000; line-height:140%; background:#fff none; overflow-y:scroll; }
html body td { vertical-align:top; text-align:left; }

h1 { padding:0px; margin:0px 0px 25px; font-family:Arial, Helvetica, sans-serif; font-size:1.5em; color:#d55000; line-height:100%; font-weight:normal; }
h2 { padding:0px; margin:0px 0px 8px; font-family:Arial, Helvetica, sans-serif; font-size:1.2em; color:#000; font-weight:bold; line-height:140%; border-bottom:1px solid #d6d4d4; display:block; }
h3 { padding:0px; margin:0px 0px 5px; font-family:Arial, Helvetica, sans-serif; font-size:1.1em; color:#000; font-weight:bold; line-height:140%; }

a { color:#005fce; text-decoration:none; }
a:hover { color:#005fce; text-decoration:underline; }
a:visited { color:#004aa0; text-decoration:none; }

p { padding:0px; margin:0px 0px 20px; }
img { padding:0px; margin:0px 0px 20px; border:none; }
p img, pre img, tt img, li img, h1 img, h2 img { margin-bottom:0px; }

ul { padding:0px; margin:0px 0px 20px 23px; list-style:square; }
ul li { padding:0px; margin:0px 0px 7px 0px; }
ul li ul { padding:5px 0px 0px; margin:0px 0px 7px 23px; }
ul li ol li { list-style:decimal; }
ol { padding:0px; margin:0px 0px 20px 0px; list-style:decimal; }
ol li { padding:0px; margin:0px 0px 7px 23px; list-style-type:decimal; }
ol li ol { padding:5px 0px 0px; margin:0px 0px 7px 0px; }
ol li ol li { list-style-type:lower-alpha; }
ol li ul { padding-top:7px; }
ol li ul li { list-style:square; }

.content { font-size:1.2em; line-height:140%; padding: 20px; }

pre, code { font-size:12px; }
tt { font-size: 1.2em; }
pre { margin:0px 0px 20px; }
pre.codeinput { padding:10px; border:1px solid #d3d3d3; background:#f7f7f7; }
pre.codeoutput { padding:10px 11px; margin:0px 0px 20px; color:#4c4c4c; }
pre.error { color:red; }

@media print { pre.codeinput, pre.codeoutput { word-wrap:break-word; width:100%; } }

span.keyword { color:#0000FF }
span.comment { color:#228B22 }
span.string { color:#A020F0 }
span.untermstring { color:#B20000 }
span.syscmd { color:#B28C00 }
span.typesection { color:#A0522D }

.footer { width:auto; padding:10px 0px; margin:25px 0px 0px; border-top:1px dotted #878787; font-size:0.8em; line-height:140%; font-style:italic; color:#878787; text-align:left; float:none; }
.footer p { margin:0px; }
.footer a { color:#878787; }
.footer a:hover { color:#878787; text-decoration:underline; }
.footer a:visited { color:#878787; }

table th { padding:7px 5px; text-align:left; vertical-align:middle; border: 1px solid #d6d4d4; font-weight:bold; }
table td { padding:7px 5px; text-align:left; vertical-align:top; border:1px solid #d6d4d4; }





  </style></head><body><div class="content"><h2>Contents</h2><div><ul><li><a href="#2">ISS (ZARYA)</a></li><li><a href="#3">JUPITER 3 (ECHOSTAR 24) : This is the heaviest commericial satellite ever launched, let alone in geostationary</a></li><li><a href="#4">MOLNIYA 1-91</a></li><li><a href="#5">COSMOS 2569 (703K)</a></li><li><a href="#6">STARLETTE</a></li><li><a href="#7">Newton-Raphson Function</a></li></ul></div><pre class="codeinput"><span class="comment">% AERSP 450 HW 1 Problem 4</span>
<span class="comment">% Made by Nicholas Luis, PSU ID: 930841391</span>

close <span class="string">all</span>;
</pre><h2 id="2">ISS (ZARYA)</h2><p>1 25544U 98067A   24259.04042691 -.00020782  00000+0 -36841-3 0  9993 2 25544  51.6359 230.2949 0007613 354.9391  85.5828 15.49088255472489</p><pre class="codeinput">clear; clc;

MU = 3.986 * (10^5); <span class="comment">% km^3 / s^2</span>
PI = 3.141592654;

<span class="comment">% Orbit Data from the TLE</span>
n = 15.49088255; <span class="comment">% Revolutions per day</span>
e = 0.0007613; <span class="comment">% Eccentricity</span>
M0 = 85.5828; <span class="comment">% Initial Mean Anomaly</span>
w = 354.9391; <span class="comment">% Argument of perigee</span>
i = 51.6359; <span class="comment">% Inclination</span>
W = 230.2949; <span class="comment">% Right ascension of ascending node</span>
ERA = [0, 36, 10]; <span class="comment">% GMST based on the provided website using epoch data</span>

T = 86400/n; <span class="comment">% Period of orbit (in seconds per 1 revolution)</span>
a = ((T/(2*PI))^2 * MU)^(1/3);
t = linspace(0,T,500); <span class="comment">% Incremental time</span>
t0 = t(1);
M = M0 + n.*(t/86400).*360; <span class="comment">% Mean anomaly at every point in the orbit</span>

<span class="comment">% Converting M (mean anomaly) to E (eccentric anomaly) and f (true anomaly)</span>
E = zeros(size(M));
<span class="keyword">for</span> iter = 1 : length(M)
    E(iter) = mean2true(M(iter), e);
<span class="keyword">end</span>
E0 = E(1);
f0 = 2*atan( sqrt((1+e)/(1-e)) * tan(E(1)/2) ) * (180/PI);

<span class="comment">% Getting initial radius and speed using derived equations</span>
p = a*(1-e^2);
r0 = p / (1+e*cosd(f0));
v0 = sqrt(2*MU/r0 - MU/a);

<span class="comment">% Calculating Langrange Coefficients using Block 2 (elliptic orbit)</span>
F = zeros(1,length(E));
G = zeros(1,length(E));
<span class="keyword">for</span> iter = 1 : length(E)
    F(iter) = 1 - (a/r0).*(1-cosd(E(iter)-E0));
    G(iter) = (t(iter)-t0) - sqrt(a^3/MU).*((E(iter)-E0).*(PI/180)-sind(E(iter)-E0));
<span class="keyword">end</span>

<span class="comment">% Getting initial position and velocity vectors in perifocal frame</span>
r = zeros(length(t), 3);
r(1,:) = [r0*cosd(f0), r0*sind(f0), 0]; <span class="comment">% e, p, h hat directions</span>
v = zeros(length(t), 3);
v(1,:) = [-sqrt(MU/p)*sind(f0), sqrt(MU/p)*(e+cosd(f0)), 0]; <span class="comment">% e, p, h hat directions</span>

<span class="comment">% Calculating 1-orbit-worth of future positions</span>
<span class="keyword">for</span> iter = 2 : length(t) <span class="comment">% Start at t = 2 because we already have initial conditions</span>
    r(iter,:) = F(iter)*r(1,:) + G(iter)*v(1,:);
<span class="keyword">end</span>

<span class="comment">% Rotation Matrices</span>
R3W = [cosd(W), -sind(W), 0;
       sind(W),  cosd(W), 0;
       0      ,  0      , 1 ]; <span class="comment">% Rotation around axis 3 by W (Right ascension of ascending node) degrees</span>
R1i = [1, 0      ,        0;
       0, cosd(i), -sind(i);
       0, sind(i),  cosd(i) ]; <span class="comment">% Rotation around axis 1 by i (inclination) degrees</span>
R3w = [cosd(w), -sind(w), 0;
       sind(w),  cosd(w), 0;
       0      ,  0      , 1 ]; <span class="comment">% Rotation around axis 3 by w (argument of perigee) degrees</span>

R_IP = R3w*(R1i*R3W);
ERA_degrees = [ERA(1)*15, ERA(2)*15/60, ERA(3)*15/60/60];
gamma0 = sum(ERA_degrees);

<span class="comment">% Rotating position vectors to get it in ECEF frame (at every point in time)</span>
<span class="keyword">for</span> iter = 1 : length(t) <span class="comment">% Start at t = 2 because we already have initial conditions</span>
    g = gamma0 - (15/3600)*t(iter);
    R3g = [cosd(g), -sind(g), 0;
           sind(g),  cosd(g), 0;
           0      ,  0      , 1 ]; <span class="comment">% Rotation around axis 3 by g (GMST angle) degrees</span>
    R_EI = R_IP*R3g;
    r(iter,:) = R_EI*r(iter,:)';
<span class="keyword">end</span>

<span class="comment">% Converting position to lattitude and longitude</span>
longitude = zeros(length(r),1);
latitude = zeros(length(r),1);
<span class="keyword">for</span> iter = 1 : length(r)
    <span class="comment">%longitude(iter) = (180/PI)*atan(r(iter, 2) / r(iter, 1)); % longtude equation using ECEF coords</span>
    longitude(iter) = (180/PI)*atan2(r(iter, 2), r(iter, 1));
    latitude(iter) = (180/PI)*atan(r(iter, 3) / sqrt(r(iter, 1)^2 + r(iter, 2)^2 )); <span class="comment">% lattitude equation using ECEF coords</span>
<span class="keyword">end</span>

